{
  "type": "FeatureCollection",
  "features": [
    {
      "type": "Feature",
      "properties": {
        "norad_id": 41890,
        "name": "CYGFM07",
        "group": "weather",
        "lat": -15.717231661940575,
        "lon": -101.15177080020729,
        "alt_km": 413.3477334249774,
        "timestamp": "2025-12-07T14:37:04.853047+00:00",
        "meta_object_name": "CYGFM07",
        "meta_object_id": "2016-078G",
        "meta_epoch": "2025-12-06T22:15:49.226112",
        "meta_mean_motion": 15.49652636,
        "meta_eccentricity": 0.0009249,
        "meta_inclination": 34.9482,
        "meta_ra_of_asc_node": 59.5503,
        "meta_arg_of_pericenter": 163.8179,
        "meta_mean_anomaly": 196.284,
        "meta_ephemeris_type": 0,
        "meta_classification_type": "U",
        "meta_norad_cat_id": 41890,
        "meta_element_set_no": 999,
        "meta_rev_at_epoch": 49905,
        "meta_bstar": 0.00051604337,
        "meta_mean_motion_dot": 0.00029579,
        "meta_mean_motion_ddot": 0,
        "tle_line1": "1 41890U 16078G   25340.92765308  .00029579  00000+0  51604-3 0  9998",
        "tle_line2": "2 41890  34.9482  59.5503 0009249 163.8179 196.2840 15.49652636499054"
      },
      "geometry": {
        "type": "Point",
        "coordinates": [
          -101.15177080020729,
          -15.717231661940575
        ]
      }
    },
    {
      "type": "Feature",
      "properties": {
        "norad_id": 41891,
        "name": "CYGFM03",
        "group": "weather",
        "lat": 23.67263682579528,
        "lon": 95.89324065789862,
        "alt_km": 415.4338419292926,
        "timestamp": "2025-12-07T14:37:04.853057+00:00",
        "meta_object_name": "CYGFM03",
        "meta_object_id": "2016-078H",
        "meta_epoch": "2025-12-06T15:14:01.040064",
        "meta_mean_motion": 15.495391,
        "meta_eccentricity": 0.0008508,
        "meta_inclination": 34.9433,
        "meta_ra_of_asc_node": 63.3845,
        "meta_arg_of_pericenter": 147.6188,
        "meta_mean_anomaly": 212.5057,
        "meta_ephemeris_type": 0,
        "meta_classification_type": "U",
        "meta_norad_cat_id": 41891,
        "meta_element_set_no": 999,
        "meta_rev_at_epoch": 49898,
        "meta_bstar": 0.00056634029,
        "meta_mean_motion_dot": 0.00032339,
        "meta_mean_motion_ddot": 0,
        "tle_line1": "1 41891U 16078H   25340.63473426  .00032339  00000+0  56634-3 0  9990",
        "tle_line2": "2 41891  34.9433  63.3845 0008508 147.6188 212.5057 15.49539100498983"
      },
      "geometry": {
        "type": "Point",
        "coordinates": [
          95.89324065789862,
          23.67263682579528
        ]
      }
    },
    {
      "type": "Feature",
      "properties": {
        "norad_id": 43010,
        "name": "FENGYUN 3D",
        "group": "weather",
        "lat": 76.68942118076839,
        "lon": -94.1492662894739,
        "alt_km": 819.4240055216442,
        "timestamp": "2025-12-07T14:37:04.853068+00:00",
        "meta_object_name": "FENGYUN 3D",
        "meta_object_id": "2017-072A",
        "meta_epoch": "2025-12-06T21:19:37.955136",
        "meta_mean_motion": 14.19681264,
        "meta_eccentricity": 7.409e-05,
        "meta_inclination": 98.9886,
        "meta_ra_of_asc_node": 307.1115,
        "meta_arg_of_pericenter": 201.3715,
        "meta_mean_anomaly": 158.7429,
        "meta_ephemeris_type": 0,
        "meta_classification_type": "U",
        "meta_norad_cat_id": 43010,
        "meta_element_set_no": 999,
        "meta_rev_at_epoch": 41770,
        "meta_bstar": 0.00012145711,
        "meta_mean_motion_dot": 2.11e-06,
        "meta_mean_motion_ddot": 0,
        "tle_line1": "1 43010U 17072A   25340.88863374  .00000211  00000+0  12146-3 0  9996",
        "tle_line2": "2 43010  98.9886 307.1115 0000740 201.3715 158.7429 14.19681264417703"
      },
      "geometry": {
        "type": "Point",
        "coordinates": [
          -94.1492662894739,
          76.68942118076839
        ]
      }
    },
    {
      "type": "Feature",
      "properties": {
        "norad_id": 43013,
        "name": "NOAA 20 (JPSS-1)",
        "group": "weather",
        "lat": -54.648883447065636,
        "lon": 85.40942822932838,
        "alt_km": 835.1494147773028,
        "timestamp": "2025-12-07T14:37:04.853079+00:00",
        "meta_object_name": "NOAA 20 (JPSS-1)",
        "meta_object_id": "2017-073A",
        "meta_epoch": "2025-12-06T22:17:13.145568",
        "meta_mean_motion": 14.19523249,
        "meta_eccentricity": 0.00021096,
        "meta_inclination": 98.759,
        "meta_ra_of_asc_node": 277.2892,
        "meta_arg_of_pericenter": 95.4546,
        "meta_mean_anomaly": 264.687,
        "meta_ephemeris_type": 0,
        "meta_classification_type": "U",
        "meta_norad_cat_id": 43013,
        "meta_element_set_no": 999,
        "meta_rev_at_epoch": 41719,
        "meta_bstar": 0.00010705697,
        "meta_mean_motion_dot": 1.82e-06,
        "meta_mean_motion_ddot": 0,
        "tle_line1": "1 43013U 17073A   25340.92862437  .00000182  00000+0  10706-3 0  9991",
        "tle_line2": "2 43013  98.7590 277.2892 0002109  95.4546 264.6870 14.19523249417198"
      },
      "geometry": {
        "type": "Point",
        "coordinates": [
          85.40942822932838,
          -54.648883447065636
        ]
      }
    },
    {
      "type": "Feature",
      "properties": {
        "norad_id": 43226,
        "name": "GOES 17",
        "group": "weather",
        "lat": 0.3782689712062452,
        "lon": -153.64274836421495,
        "alt_km": 35780.4345588084,
        "timestamp": "2025-12-07T14:37:04.853091+00:00",
        "meta_object_name": "GOES 17",
        "meta_object_id": "2018-022A",
        "meta_epoch": "2025-12-06T21:48:02.437920",
        "meta_mean_motion": 1.0027089,
        "meta_eccentricity": 0.00035144,
        "meta_inclination": 0.4441,
        "meta_ra_of_asc_node": 89.2288,
        "meta_arg_of_pericenter": 183.9619,
        "meta_mean_anomaly": 40.2612,
        "meta_ephemeris_type": 0,
        "meta_classification_type": "U",
        "meta_norad_cat_id": 43226,
        "meta_element_set_no": 999,
        "meta_rev_at_epoch": 2849,
        "meta_bstar": 0,
        "meta_mean_motion_dot": -1.77e-06,
        "meta_mean_motion_ddot": 0,
        "tle_line1": "1 43226U 18022A   25340.90836155 -.00000177  00000+0  00000+0 0  9995",
        "tle_line2": "2 43226   0.4441  89.2288 0003514 183.9619  40.2612  1.00270890 28494"
      },
      "geometry": {
        "type": "Point",
        "coordinates": [
          -153.64274836421495,
          0.3782689712062452
        ]
      }
    },
    {
      "type": "Feature",
      "properties": {
        "norad_id": 43491,
        "name": "FENGYUN 2H",
        "group": "weather",
        "lat": -2.30664073803789,
        "lon": 15.30571163499617,
        "alt_km": 35794.23243191705,
        "timestamp": "2025-12-07T14:37:04.853104+00:00",
        "meta_object_name": "FENGYUN 2H",
        "meta_object_id": "2018-050A",
        "meta_epoch": "2025-12-06T22:25:51.770208",
        "meta_mean_motion": 1.00271276,
        "meta_eccentricity": 0.00029164,
        "meta_inclination": 2.5352,
        "meta_ra_of_asc_node": 81.3937,
        "meta_arg_of_pericenter": 165.2651,
        "meta_mean_anomaly": 245.1354,
        "meta_ephemeris_type": 0,
        "meta_classification_type": "U",
        "meta_norad_cat_id": 43491,
        "meta_element_set_no": 999,
        "meta_rev_at_epoch": 2751,
        "meta_bstar": 0,
        "meta_mean_motion_dot": -1.25e-06,
        "meta_mean_motion_ddot": 0,
        "tle_line1": "1 43491U 18050A   25340.93462697 -.00000125  00000+0  00000+0 0  9992",
        "tle_line2": "2 43491   2.5352  81.3937 0002916 165.2651 245.1354  1.00271276 27510"
      },
      "geometry": {
        "type": "Point",
        "coordinates": [
          15.30571163499617,
          -2.30664073803789
        ]
      }
    },
    {
      "type": "Feature",
      "properties": {
        "norad_id": 43689,
        "name": "METOP-C",
        "group": "weather",
        "lat": -19.739734419366304,
        "lon": 42.60449066870977,
        "alt_km": 824.9608986545745,
        "timestamp": "2025-12-07T14:37:04.853116+00:00",
        "meta_object_name": "METOP-C",
        "meta_object_id": "2018-087A",
        "meta_epoch": "2025-12-06T21:49:07.543776",
        "meta_mean_motion": 14.21508446,
        "meta_eccentricity": 0.00015787,
        "meta_inclination": 98.6937,
        "meta_ra_of_asc_node": 38.7679,
        "meta_arg_of_pericenter": 52.1262,
        "meta_mean_anomaly": 308.0058,
        "meta_ephemeris_type": 0,
        "meta_classification_type": "U",
        "meta_norad_cat_id": 43689,
        "meta_element_set_no": 999,
        "meta_rev_at_epoch": 36751,
        "meta_bstar": 0.00014605535,
        "meta_mean_motion_dot": 2.76e-06,
        "meta_mean_motion_ddot": 0,
        "tle_line1": "1 43689U 18087A   25340.90911509  .00000276  00000+0  14606-3 0  9996",
        "tle_line2": "2 43689  98.6937  38.7679 0001578  52.1262 308.0058 14.21508446367514"
      },
      "geometry": {
        "type": "Point",
        "coordinates": [
          42.60449066870977,
          -19.739734419366304
        ]
      }
    }
  ]
}